{"type": "FeatureCollection", "features": [ {"type": "Feature", "properties": {"norad_id": 66639, "name": "STARLINK-35908", "group": "last-30-days", "lat": 38.53071299685895, "lon": -129.63555380068547, "alt_km": 394.2054553936505, "timestamp": "2025-12-11T08:58:25.855483+00:00", "meta": {"OBJECT_NAME": "STARLINK-35908", "OBJECT_ID": "2025-271Y", "EPOCH": "2025-12-11T04:00:01.998720", "MEAN_MOTION": 15.56798399, "ECCENTRICITY": 9.35e-05, "INCLINATION": 53.1596, "RA_OF_ASC_NODE": 194.7091, "ARG_OF_PERICENTER": 93.5656, "MEAN_ANOMALY": 235.9632, "EPHEMERIS_TYPE": 0, "CLASSIFICATION_TYPE": "U", "NORAD_CAT_ID": 66639, "ELEMENT_SET_NO": 999, "REV_AT_EPOCH": 399, "BSTAR": -0.032182, "MEAN_MOTION_DOT": -0.02090878, "MEAN_MOTION_DDOT": 0}, "tle": {"line1": "1 66639U 25271Y   25345.16668980 -.02090878  00000+0 -32182-1 0  9992", "line2": "2 66639  53.1596 194.7091 0000935  93.5656 235.9632 15.56798399  3996"}}, "geometry": {"type": "Point", "coordinates": [-129.63555380068547, 38.53071299685895]}}, {"type": "Feature", "properties": {"norad_id": 66640, "name": "STARLINK-35921", "group": "last-30-days", "lat": 39.74716019246279, "lon": -127.725520081039, "alt_km": 394.04395592841684, "timestamp": "2025-12-11T08:58:25.855499+00:00", "meta": {"OBJECT_NAME": "STARLINK-35921", "OBJECT_ID": "2025-271Z", "EPOCH": "2025-12-11T04:00:01.998720", "MEAN_MOTION": 15.56796584, "ECCENTRICITY": 8.63e-05, "INCLINATION": 53.1596, "RA_OF_ASC_NODE": 194.705, "ARG_OF_PERICENTER": 95.0563, "MEAN_ANOMALY": 236.3888, "EPHEMERIS_TYPE": 0, "CLASSIFICATION_TYPE": "U", "NORAD_CAT_ID": 66640, "ELEMENT_SET_NO": 999, "REV_AT_EPOCH": 399, "BSTAR": -0.032085, "MEAN_MOTION_DOT": -0.02085046, "MEAN_MOTION_DDOT": 0}, "tle": {"line1": "1 66640U 25271Z   25345.16668980 -.02085046  00000+0 -32085-1 0  9997", "line2": "2 66640  53.1596 194.7050 0000863  95.0563 236.3888 15.56796584  3999"}}, "geometry": {"type": "Point", "coordinates": [-127.725520081039, 39.74716019246279]}}, {"type": "Feature", "properties": {"norad_id": 66641, "name": "STARLINK-35923", "group": "last-30-days", "lat": 44.262019792888545, "lon": -119.37134886697386, "alt_km": 393.3420580279753, "timestamp": "2025-12-11T08:58:25.855510+00:00", "meta": {"OBJECT_NAME": "STARLINK-35923", "OBJECT_ID": "2025-271AA", "EPOCH": "2025-12-11T04:00:01.998720", "MEAN_MOTION": 15.56795404, "ECCENTRICITY": 8.88e-05, "INCLINATION": 53.1596, "RA_OF_ASC_NODE": 194.688, "ARG_OF_PERICENTER": 102.7307, "MEAN_ANOMALY": 236.3843, "EPHEMERIS_TYPE": 0, "CLASSIFICATION_TYPE": "U", "NORAD_CAT_ID": 66641, "ELEMENT_SET_NO": 999, "REV_AT_EPOCH": 399, "BSTAR": -0.032076, "MEAN_MOTION_DOT": -0.02084501, "MEAN_MOTION_DDOT": 0}, "tle": {"line1": "1 66641U 25271AA  25345.16668980 -.02084501  00000+0 -32076-1 0  9993", "line2": "2 66641  53.1596 194.6880 0000888 102.7307 236.3843 15.56795404  3990"}}, "geometry": {"type": "Point", "coordinates": [-119.37134886697386, 44.262019792888545]}}, {"type": "Feature", "properties": {"norad_id": 66642, "name": "STARLINK-35926", "group": "last-30-days", "lat": 43.192833885403246, "lon": -121.56965775705704, "alt_km": 393.45051920985225, "timestamp": "2025-12-11T08:58:25.855520+00:00", "meta": {"OBJECT_NAME": "STARLINK-35926", "OBJECT_ID": "2025-271AB", "EPOCH": "2025-12-11T04:00:01.998720", "MEAN_MOTION": 15.5679801, "ECCENTRICITY": 7.81e-05, "INCLINATION": 53.1595, "RA_OF_ASC_NODE": 194.6933, "ARG_OF_PERICENTER": 88.9394, "MEAN_ANOMALY": 248.2567, "EPHEMERIS_TYPE": 0, "CLASSIFICATION_TYPE": "U", "NORAD_CAT_ID": 66642, "ELEMENT_SET_NO": 999, "REV_AT_EPOCH": 375, "BSTAR": -0.032105, "MEAN_MOTION_DOT": -0.02086285, "MEAN_MOTION_DDOT": 0}, "tle": {"line1": "1 66642U 25271AB  25345.16668980 -.02086285  00000+0 -32105-1 0  9998", "line2": "2 66642  53.1595 194.6933 0000781  88.9394 248.2567 15.56798010  3757"}}, "geometry": {"type": "Point", "coordinates": [-121.56965775705704, 43.192833885403246]}}, {"type": "Feature", "properties": {"norad_id": 66643, "name": "STARLINK-35918", "group": "last-30-days", "lat": 40.9318695887901, "lon": -125.74613285975536, "alt_km": 393.8323993829281, "timestamp": "2025-12-11T08:58:25.855533+00:00", "meta": {"OBJECT_NAME": "STARLINK-35918", "OBJECT_ID": "2025-271AC", "EPOCH": "2025-12-11T04:00:01.998720", "MEAN_MOTION": 15.56796594, "ECCENTRICITY": 8.49e-05, "INCLINATION": 53.1599, "RA_OF_ASC_NODE": 194.7015, "ARG_OF_PERICENTER": 93.2877, "MEAN_ANOMALY": 240.0746, "EPHEMERIS_TYPE": 0, "CLASSIFICATION_TYPE": "U", "NORAD_CAT_ID": 66643, "ELEMENT_SET_NO": 999, "REV_AT_EPOCH": 399, "BSTAR": -0.03209, "MEAN_MOTION_DOT": -0.02085375, "MEAN_MOTION_DDOT": 0}, "tle": {"line1": "1 66643U 25271AC  25345.16668980 -.02085375  00000+0 -32090-1 0  9991", "line2": "2 66643  53.1599 194.7015 0000849  93.2877 240.0746 15.56796594  3994"}}, "geometry": {"type": "Point", "coordinates": [-125.74613285975536, 40.9318695887901]}}, {"type": "Feature", "properties": {"norad_id": 66644, "name": "STARLINK-35938", "group": "last-30-days", "lat": 42.08051925281573, "lon": -123.69653780055506, "alt_km": 393.64288945812586, "timestamp": "2025-12-11T08:58:25.855543+00:00", "meta": {"OBJECT_NAME": "STARLINK-35938", "OBJECT_ID": "2025-271AD", "EPOCH": "2025-12-11T04:00:01.998720", "MEAN_MOTION": 15.56794577, "ECCENTRICITY": 8.49e-05, "INCLINATION": 53.1595, "RA_OF_ASC_NODE": 194.6972, "ARG_OF_PERICENTER": 93.8007, "MEAN_ANOMALY": 241.4791, "EPHEMERIS_TYPE": 0, "CLASSIFICATION_TYPE": "U", "NORAD_CAT_ID": 66644, "ELEMENT_SET_NO": 999, "REV_AT_EPOCH": 399, "BSTAR": -0.032027, "MEAN_MOTION_DOT": -0.02081543, "MEAN_MOTION_DDOT": 0}, "tle": {"line1": "1 66644U 25271AD  25345.16668980 -.02081543  00000+0 -32027-1 0  9995", "line2": "2 66644  53.1595 194.6972 0000849  93.8007 241.4791 15.56794577  3997"}}, "geometry": {"type": "Point", "coordinates": [-123.69653780055506, 42.08051925281573]}}, {"type": "Feature", "properties": {"norad_id": 66645, "name": "SHENZHOU-22", "group": "last-30-days", "lat": 16.078230075919112, "lon": 44.04688696907212, "alt_km": 381.72027656299633, "timestamp": "2025-12-11T08:58:25.855553+00:00", "meta": {"OBJECT_NAME": "SHENZHOU-22", "OBJECT_ID": "2025-272A", "EPOCH": "2025-12-10T20:34:09.975360", "MEAN_MOTION": 15.59054125, "ECCENTRICITY": 0.0008705, "INCLINATION": 41.4684, "RA_OF_ASC_NODE": 28.1364, "ARG_OF_PERICENTER": 14.9689, "MEAN_ANOMALY": 345.1405, "EPHEMERIS_TYPE": 0, "CLASSIFICATION_TYPE": "U", "NORAD_CAT_ID": 66645, "ELEMENT_SET_NO": 999, "REV_AT_EPOCH": 26357, "BSTAR": 0.00042990708, "MEAN_MOTION_DOT": 0.0003436, "MEAN_MOTION_DDOT": 0}, "tle": {"line1": "1 66645U 25272A   25344.85705990  .00034360  00000+0  42991-3 0  9999", "line2": "2 66645  41.4684  28.1364 0008705  14.9689 345.1405 15.59054125263579"}}, "geometry": {"type": "Point", "coordinates": [44.04688696907212, 16.078230075919112]}}, {"type": "Feature", "properties": {"norad_id": 66647, "name": "COSMOS 2597 (RODNIK-S 22)", "group": "last-30-days", "lat": 54.027502706338865, "lon": 96.83889907301511, "alt_km": 1499.246766419129, "timestamp": "2025-12-11T08:58:25.855564+00:00", "meta": {"OBJECT_NAME": "COSMOS 2597 (RODNIK-S 22)", "OBJECT_ID": "2025-273A", "EPOCH": "2025-12-11T04:26:04.446816", "MEAN_MOTION": 12.4195129, "ECCENTRICITY": 0.0007925, "INCLINATION": 82.4986, "RA_OF_ASC_NODE": 287.4145, "ARG_OF_PERICENTER": 292.862, "MEAN_ANOMALY": 67.1622, "EPHEMERIS_TYPE": 0, "CLASSIFICATION_TYPE": "U", "NORAD_CAT_ID": 66647, "ELEMENT_SET_NO": 999, "REV_AT_EPOCH": 194, "BSTAR": 0.00017243, "MEAN_MOTION_DOT": 3.3e-07, "MEAN_MOTION_DDOT": 0}, "tle": {"line1": "1 66647U 25273A   25345.18477369  .00000033  00000+0  17243-3 0  9997", "line2": "2 66647  82.4986 287.4145 0007925 292.8620  67.1622 12.41951290  1943"}}, "geometry": {"type": "Point", "coordinates": [96.83889907301511, 54.027502706338865]}}, {"type": "Feature", "properties": {"norad_id": 66648, "name": "COSMOS 2598 (RODNIK-S 23)", "group": "last-30-days", "lat": 25.723535223712442, "lon": 103.66271576109905, "alt_km": 1494.4730341628174, "timestamp": "2025-12-11T08:58:25.855577+00:00", "meta": {"OBJECT_NAME": "COSMOS 2598 (RODNIK-S 23)", "OBJECT_ID": "2025-273B", "EPOCH": "2025-12-10T20:33:20.105280", "MEAN_MOTION": 12.42861563, "ECCENTRICITY": 0.00072453, "INCLINATION": 82.5033, "RA_OF_ASC_NODE": 287.6211, "ARG_OF_PERICENTER": 255.7215, "MEAN_ANOMALY": 104.3061, "EPHEMERIS_TYPE": 0, "CLASSIFICATION_TYPE": "U", "NORAD_CAT_ID": 66648, "ELEMENT_SET_NO": 999, "REV_AT_EPOCH": 190, "BSTAR": 6.0954808e-05, "MEAN_MOTION_DOT": 1.8e-07, "MEAN_MOTION_DDOT": 0}, "tle": {"line1": "1 66648U 25273B   25344.85648270  .00000018  00000+0  60955-4 0  9994", "line2": "2 66648  82.5033 287.6211 0007245 255.7215 104.3061 12.42861563  1908"}}, "geometry": {"type": "Point", "coordinates": [103.66271576109905, 25.723535223712442]}}, {"type": "Feature", "properties": {"norad_id": 66649, "name": "COSMOS 2599 (RODNIK-S 24)", "group": "last-30-days", "lat": 69.1505670171222, "lon": 87.08658681842131, "alt_km": 1498.8846960052533, "timestamp": "2025-12-11T08:58:25.855590+00:00", "meta": {"OBJECT_NAME": "COSMOS 2599 (RODNIK-S 24)", "OBJECT_ID": "2025-273C", "EPOCH": "2025-12-11T04:31:06.239424", "MEAN_MOTION": 12.41672341, "ECCENTRICITY": 0.0007905, "INCLINATION": 82.5027, "RA_OF_ASC_NODE": 287.4285, "ARG_OF_PERICENTER": 301.8406, "MEAN_ANOMALY": 58.1902, "EPHEMERIS_TYPE": 0, "CLASSIFICATION_TYPE": "U", "NORAD_CAT_ID": 66649, "ELEMENT_SET_NO": 999, "REV_AT_EPOCH": 194, "BSTAR": -0.00026959, "MEAN_MOTION_DOT": -2.7e-07, "MEAN_MOTION_DDOT": 0}, "tle": {"line1": "1 66649U 25273C   25345.18826666 -.00000027  00000+0 -26959-3 0  9996", "line2": "2 66649  82.5027 287.4285 0007905 301.8406  58.1902 12.41672341  1946"}}, "geometry": {"type": "Point", "coordinates": [87.08658681842131, 69.1505670171222]}}]}